[{"OBJECT_NAME":"THEOS","OBJECT_ID":"2008-049A","EPOCH":"2026-03-09T23:28:13.334304","MEAN_MOTION":14.20116597,"ECCENTRICITY":0.00010425,"INCLINATION":98.5696,"RA_OF_ASC_NODE":129.4305,"ARG_OF_PERICENTER":90.3146,"MEAN_ANOMALY":269.8151,"EPHEMERIS_TYPE":0,"CLASSIFICATION_TYPE":"U","NORAD_CAT_ID":33396,"ELEMENT_SET_NO":999,"REV_AT_EPOCH":90388,"BSTAR":-7.5504934e-5,"MEAN_MOTION_DOT":-2.03e-6,"MEAN_MOTION_DDOT":0},{"OBJECT_NAME":"COSMOS 1275 DEB","OBJECT_ID":"1981-053MF","EPOCH":"2026-03-09T07:17:41.614368","MEAN_MOTION":14.22636139,"ECCENTRICITY":0.00238889,"INCLINATION":82.7843,"RA_OF_ASC_NODE":0.6496,"ARG_OF_PERICENTER":204.2708,"MEAN_ANOMALY":286.5791,"EPHEMERIS_TYPE":0,"CLASSIFICATION_TYPE":"U","NORAD_CAT_ID":19047,"ELEMENT_SET_NO":999,"REV_AT_EPOCH":9024,"BSTAR":0.0018257348,"MEAN_MOTION_DOT":4.11e-5,"MEAN_MOTION_DDOT":0}]
